{
    "links": {
        "self": "http://www.neowsapp.com/rest/v1/neo/3942357?api_key=iIulBulltgU6a56xZRHN4H3l9WmuAYTsLGpBGhQ2"
    },
    "id": "3942357",
    "neo_reference_id": "3942357",
    "name": "(2019 YE)",
    "designation": "2019 YE",
    "nasa_jpl_url": "http://ssd.jpl.nasa.gov/sbdb.cgi?sstr=3942357",
    "absolute_magnitude_h": 26.7,
    "estimated_diameter": {
        "kilometers": {
            "estimated_diameter_min": 0.0121494041,
            "estimated_diameter_max": 0.0271668934
        },
        "meters": {
            "estimated_diameter_min": 12.14940408,
            "estimated_diameter_max": 27.1668934089
        },
        "miles": {
            "estimated_diameter_min": 0.0075492874,
            "estimated_diameter_max": 0.0168807197
        },
        "feet": {
            "estimated_diameter_min": 39.8602508817,
            "estimated_diameter_max": 89.1302305717
        }
    },
    "is_potentially_hazardous_asteroid": false,
    "close_approach_data": [
        {
            "close_approach_date": "1985-06-07",
            "close_approach_date_full": "1985-Jun-07 22:58",
            "epoch_date_close_approach": 487033080000,
            "relative_velocity": {
                "kilometers_per_second": "15.135910241",
                "kilometers_per_hour": "54489.2768674916",
                "miles_per_hour": "33857.5176180256"
            },
            "miss_distance": {
                "astronomical": "0.1098704189",
                "lunar": "42.7395929521",
                "kilometers": "16436380.643447743",
                "miles": "10213093.3444071334"
            },
            "orbiting_body": "Earth"
        },
        {
            "close_approach_date": "2019-12-12",
            "close_approach_date_full": "2019-Dec-12 02:46",
            "epoch_date_close_approach": 1576118760000,
            "relative_velocity": {
                "kilometers_per_second": "12.6266930732",
                "kilometers_per_hour": "45456.0950635445",
                "miles_per_hour": "28244.6497354563"
            },
            "miss_distance": {
                "astronomical": "0.0246399838",
                "lunar": "9.5849536982",
                "kilometers": "3686089.093314506",
                "miles": "2290429.5539559428"
            },
            "orbiting_body": "Earth"
        },
        {
            "close_approach_date": "2023-06-03",
            "close_approach_date_full": "2023-Jun-03 11:19",
            "epoch_date_close_approach": 1685791140000,
            "relative_velocity": {
                "kilometers_per_second": "18.3145708482",
                "kilometers_per_hour": "65932.4550536896",
                "miles_per_hour": "40967.8635304439"
            },
            "miss_distance": {
                "astronomical": "0.2242460799",
                "lunar": "87.2317250811",
                "kilometers": "33546735.908889813",
                "miles": "20844975.0994448994"
            },
            "orbiting_body": "Earth"
        },
        {
            "close_approach_date": "2024-12-31",
            "close_approach_date_full": "2024-Dec-31 21:31",
            "epoch_date_close_approach": 1735680660000,
            "relative_velocity": {
                "kilometers_per_second": "25.9237894075",
                "kilometers_per_hour": "93325.6418670799",
                "miles_per_hour": "57988.9245256864"
            },
            "miss_distance": {
                "astronomical": "0.4723665106",
                "lunar": "183.7505726234",
                "kilometers": "70665023.845092422",
                "miles": "43909209.7202305436"
            },
            "orbiting_body": "Earth"
        }
    ],
    "orbital_data": {
        "orbit_id": "6",
        "orbit_determination_date": "2020-04-04 06:25:44",
        "first_observation_date": "2019-12-17",
        "last_observation_date": "2019-12-23",
        "data_arc_in_days": 6,
        "observations_used": 26,
        "orbit_uncertainty": "8",
        "minimum_orbit_intersection": ".00490537",
        "jupiter_tisserand_invariant": "5.310",
        "epoch_osculation": "2458838.5",
        "eccentricity": ".3625874681485314",
        "semi_major_axis": "1.171735795108654",
        "inclination": "10.68062770389089",
        "ascending_node_longitude": "264.3890440695056",
        "orbital_period": "463.2793822365999",
        "perihelion_distance": ".7468790798212011",
        "perihelion_argument": "88.15013907125437",
        "aphelion_distance": "1.596592510396108",
        "perihelion_time": "2458770.088715185023",
        "mean_anomaly": "53.16028184654676",
        "mean_motion": ".7770689001138099",
        "equinox": "J2000",
        "orbit_class": {
            "orbit_class_type": "APO",
            "orbit_class_description": "Near-Earth asteroid orbits which cross the Earth’s orbit similar to that of 1862 Apollo",
            "orbit_class_range": "a (semi-major axis) > 1.0 AU; q (perihelion) < 1.017 AU"
        }
    },
    "is_sentry_object": false
}